TDRS 3                  
1 19548U 88091B   24297.47772432 -.00000306  00000+0  00000+0 0  9991
2 19548  13.0651 345.0289 0038073 334.7826 195.7155  1.00276785119358
FLTSATCOM 8 (USA 46)    
1 20253U 89077A   24297.51247648 -.00000374  00000+0  00000+0 0  9997
2 20253  12.5960 354.7656 0005265 224.8958 123.0463  1.00268889254528
SKYNET 4C               
1 20776U 90079A   24273.86593681  .00000122  00000+0  00000+0 0  9994
2 20776  13.5422 354.0676 0003521 217.5807 142.6885  1.00279641124611
TDRS 5                  
1 21639U 91054B   24297.17939426 -.00000308  00000+0  00000+0 0  9995
2 21639  14.1469 358.1710 0006982 241.2672 155.0081  1.00274134121682
TDRS 6                  
1 22314U 93003B   24297.04933760 -.00000302  00000+0  00000+0 0  9997
2 22314  14.1679   1.4724 0010944 181.1012 181.2000  1.00278151116377
UFO 2 (USA 95)          
1 22787U 93056A   24296.86299448  .00000118  00000+0  00000+0 0  9990
2 22787  11.6956   6.7169 0004568 204.9299 159.5000  1.00270995112628
USA 99 (MILSTAR-1 1)    
1 22988U 94009A   24296.40822847 -.00000204  00000+0  00000+0 0  9994
2 22988  16.7086  34.1151 0003110 197.3221 216.8795  1.00271548 26918
UFO 4 (USA 108)         
1 23467U 95003A   24297.52159892 -.00000027  00000+0  00000+0 0  9992
2 23467   9.7158  15.0797 0005525 194.3983 183.1608  1.00275980108926
TDRS 7                  
1 23613U 95035B   24297.64961809 -.00000211  00000+0  00000+0 0  9997
2 23613  13.6292 352.3261 0022768  77.3871 281.7084  1.00273469107213
USA 115 (MILSTAR-1 2)   
1 23712U 95060A   24297.43400949 -.00000026  00000+0  00000+0 0  9999
2 23712  13.8501   8.1114 0003356 241.7721 178.6925  1.00271250 26858
INMARSAT 3-F1           
1 23839U 96020A   24297.56854971 -.00000210  00000+0  00000+0 0  9993
2 23839   9.3369  51.8513 0008782 158.6409 183.0843  1.00004522104239
INMARSAT 3-F2           
1 24307U 96053A   24297.49483976  .00000134  00000+0  00000+0 0  9999
2 24307   8.4816  59.7666 0006333 139.4177  48.9267  0.99986589102902
INMARSAT 3-F3           
1 24674U 96070A   24296.75889072 -.00000258  00000+0  00000+0 0  9998
2 24674   9.0037  55.1254 0008220 165.0455  16.1815  0.99990210101872
GALAXY 25 (G-25)        
1 24812U 97026A   24297.26417222 -.00000234  00000+0  00000+0 0  9999
2 24812   5.8646  74.6728 0003886  52.6340 316.0911  0.99092046100266
AMC-3                   
1 24936U 97050A   24297.30674220 -.00000267  00000+0  00000+0 0  9997
2 24936   6.6635  70.7819 0003050 155.3975 204.4764  1.00273337 99413
USA 134                 
1 25019U 97065A   24297.43545022 -.00000068  00000+0  00000+0 0  9996
2 25019  12.0638  25.9869 0003881 228.7495 182.2289  1.00270508 26929
INMARSAT 3-F5           
1 25153U 98006B   24297.26217396 -.00000295  00000+0  00000+0 0  9994
2 25153   8.3359  58.9415 0005189 162.1415 211.5225  1.00273388 97861
ASTRA 2A                
1 25462U 98050A   24297.49874938  .00000061  00000+0  00000+0 0  9992
2 25462   5.5706  75.9527 0003297 144.2648  48.9466  1.00273342 40305
SKYNET 4E               
1 25639U 99009B   24278.03891605 -.00000025  00000+0  00000+0 0  9993
2 25639  11.6958  12.4837 0003428 199.7223 173.8420  1.00274233 45165
ABS-6                   
1 25924U 99053A   24297.63487611 -.00000128  00000+0  00000+0 0  9998
2 25924   0.0530  92.2372 0002379 154.4935 173.3829  1.00271413 91809
UFO 10 (USA 146)        
1 25967U 99063A   24297.05394226 -.00000193  00000+0  00000+0 0  9993
2 25967   9.5876  30.0759 0006194 201.0888 157.3256  1.00275986 91307
GALAXY 11 (G-11)        
1 26038U 99071A   24297.54424160 -.00000061  00000+0  00000+0 0  9991
2 26038   5.2054  77.6845 0000581 226.7312  90.2702  1.00272199 91046
USA 148                 
1 26052U 00001A   24297.39667966  .00000033  00000+0  00000+0 0  9996
2 26052  10.9201  36.8257 0003447 220.2936  98.4571  1.00276926 26929
ASIASTAR                
1 26107U 00016A   24297.61047819 -.00000340  00000+0  00000+0 0  9999
2 26107   7.7122  64.2887 0004961 159.3495 133.6573  1.00274814 89886
USA 149 (DSP 20)        
1 26356U 00024A   24297.54076233  .00000088  00000+0  00000+0 0  9996
2 26356  12.7147  15.9502 0000391   7.0402  38.4466  1.00269235 26887
TDRS 8                  
1 26388U 00034A   24297.52559542  .00000089  00000+0  00000+0 0  9990
2 26388  11.7332  36.1819 0006389 202.5140 175.2796  1.00271267 89150
INTELSAT 9 (IS-9)       
1 26451U 00043A   24290.42223765 -.00000023  00000+0  00000+0 0  9997
2 26451   9.0494  54.6161 0006566 170.1212  16.7708  1.00428341 38043
NSS-11                  
1 26554U 00059A   24297.55737535  .00000017  00000+0  00000+0 0  9996
2 26554   0.5630  87.9625 0003190 131.5378 189.6361  1.00272225 35256
USA 153                 
1 26575U 00065A   24296.68243568 -.00000332  00000+0  00000+0 0  9998
2 26575  10.5775  40.0834 0003063 222.9923 148.4622  1.00265639 26896
AMC-6                   
1 26580U 00067A   24297.53938421  .00000096  00000+0  00000+0 0  9996
2 26580   0.0749  76.0603 0002074 137.8420 233.7299  1.00272369 87856
INTELSAT 1R (IS-1R)     
1 26608U 00072A   24297.60792716 -.00000102  00000+0  00000+0 0  9995
2 26608   6.5702  71.2858 0008267 162.0013 121.4340  0.98975627 35276
ANIK F1                 
1 26624U 00076A   24297.53723741 -.00000069  00000+0  00000+0 0  9993
2 26624   3.6323  82.1029 0006777 106.9707 287.6059  1.00272781 37115
USA 157 (MILSTAR-2 2)   
1 26715U 01009A   24283.46123479  .00000116  00000+0  00000+0 0  9992
2 26715  10.8669  23.2493 0018413 170.9205 201.2594  0.99920289 25476
INTELSAT 10 (IS-10)     
1 26766U 01019A   24297.42532260 -.00000013  00000+0  00000+0 0  9999
2 26766   7.6314  65.3616 0003706 164.3839  21.8152  1.00270958 39583
INTELSAT 901 (IS-901)   
1 26824U 01024A   24297.34632769 -.00000210  00000+0  00000+0 0  9995
2 26824   0.0613  78.1735 0001229 191.1028 220.2021  1.00270158 16955
USA 159 (DSP 21)        
1 26880U 01033A   24297.12021134 -.00000304  00000+0  00000+0 0  9995
2 26880  12.2163  20.4754 0002610 239.3743 126.2924  1.00266859 26936
INTELSAT 902 (IS-902)   
1 26900U 01039A   24297.29563352 -.00000288  00000+0  00000+0 0  9996
2 26900   4.5850  79.0773 0005313 147.9822 221.5087  1.00275266 84667
USA 164 (MILSTAR-2 3)   
1 27168U 02001A   24296.91927759  .00000092  00000+0  00000+0 0  9998
2 27168  10.4630  25.2141 0096950   1.9157 354.5674  1.00272240 26917
INTELSAT 904 (IS-904)   
1 27380U 02007A   24297.26703927 -.00000220  00000+0  00000+0 0  9992
2 27380   5.4034  76.3237 0003224 148.4295 234.0732  1.00271087 83053
DIRECTV 5 (TEMPO 1)     
1 27426U 02023A   24297.53706365 -.00000063  00000+0  00000+0 0  9995
2 27426   3.3304  82.7996 0003457 139.5341 253.3513  1.00271965 82094
INTELSAT 905 (IS-905)   
1 27438U 02027A   24297.26808184 -.00000191  00000+0  00000+0 0  9996
2 27438   5.2296  76.9678 0002906 145.4298 241.7981  1.00270939 81937
GALAXY 3C (G-3C)        
1 27445U 02030A   24297.54010448 -.00000159  00000+0  00000+0 0  9991
2 27445   2.1871  85.3766 0003003  69.2552 337.4090  1.00271493 40460
INTELSAT 906 (IS-906)   
1 27513U 02041A   24297.50013948  .00000007  00000+0  00000+0 0  9994
2 27513   4.2629  80.2978 0005096 162.6148  33.7130  1.00273184 80994
TDRS 10                 
1 27566U 02055A   24297.50734744  .00000084  00000+0  00000+0 0  9996
2 27566   9.8006  44.4412 0000394 281.3676  78.3706  1.00286807 80190
NIMIQ 2                 
1 27632U 02062A   24296.89355542 -.00000073  00000+0  00000+0 0  9993
2 27632   8.0317  62.9690 0006809 157.6345  23.7272  1.00272836 38145
USA 167                 
1 27691U 03008A   24297.21727503 -.00000001  00000+0  00000+0 0  9997
2 27691   9.7554  48.4887 0002649 227.4629  72.7448  1.00272146   734
USA 169 (MILSTAR-2 4)   
1 27711U 03012A   24297.57410432 -.00000202  00000+0  00000+0 0  9997
2 27711  11.4290  34.4462 0095621   4.2915 352.5691  1.00271052 26911
ASIASAT 4               
1 27718U 03014A   24297.57410432 -.00000228  00000+0  00000+0 0  9994
2 27718   3.1559  83.2973 0003685 140.4874 162.9457  1.00271293 39261
HELLAS-SAT 2            
1 27811U 03020A   24297.12794372 -.00000088  00000+0  00000+0 0  9998
2 27811   5.8438  74.9915 0009166 153.6003 199.5545  1.00272035 36809
THURAYA-2               
1 27825U 03026A   24296.92422978  .00000119  00000+0  00000+0 0  9990
2 27825   7.9079  33.9083 0001903 166.9879 207.6952  1.00274113 78312
OPTUS C1                
1 27831U 03028B   24297.54704434 -.00000156  00000+0  00000+0 0  9990
2 27831   5.3706  76.6261 0006235 142.5816 165.9439  1.00271220 47020
GALAXY 23 (G-23)        
1 27854U 03034A   24297.51210785  .00000005  00000+0  00000+0 0  9992
2 27854   1.6363  87.2418 0002687 122.0401 246.6402  1.00271841 77710
USA 170                 
1 27875U 03040A   24296.49117459  .00000122  00000+0  00000+0 0  9992
2 27875   9.2112  53.3484 0002286 167.0601  11.8489  1.00271130 26949
GALAXY 13 (HORIZONS-1)  
1 27954U 03044A   24297.52998400  .00000124  00000+0  00000+0 0  9994
2 27954   0.0216 115.7409 0001439  64.7673 252.7295  1.00276723 40537
YAMAL 202               
1 28089U 03053A   24297.54424160 -.00000086  00000+0  00000+0 0  9991
2 28089   4.8140  78.1906 0006148 140.9484 172.7559  1.00271963 76666
UFO 11 (USA 174)        
1 28117U 03057A   24297.35930628 -.00000105  00000+0  00000+0 0  9999
2 28117   8.2692  36.3307 0004062 177.4755  22.8624  1.00271194 76415
USA 176 (DSP 22)        
1 28158U 04004A   24297.64931122 -.00000226  00000+0  00000+0 0  9993
2 28158  11.2380  30.2059 0001165 269.7048  53.7251  1.00275143 26890
ABS-4 (MOBISAT-1)       
1 28184U 04007A   24297.57103390  .00000033  00000+0  00000+0 0  9990
2 28184   4.5079  79.2763 0006704 150.6804  69.1041  1.00272839 46301
EUTELSAT 7A             
1 28187U 04008A   24297.54536125  .00000098  00000+0  00000+0 0  9998
2 28187   4.2938  79.1054 0005784 172.2519 198.2296  1.00271931 75329
